*******************************************************************************
JPL/HORIZONS                 41 Daphne (A856 KA)           2020-Jun-20 07:59:11
Rec #:      41 (+COV) Soln.date: 2020-Feb-22_15:15:30   # obs: 2802 (1866-2020)
 
IAU76/J2000 helio. ecliptic osc. elements (au, days, deg., period=Julian yrs):
 
  EPOCH=  2453255.5 ! 2004-Sep-07.00 (TDB)         Residual RMS= .18714
   EC= .2717020340736521   QR= 2.013868647716624   TP= 2452944.9999618703
   OM= 178.1732344615275   W=  46.129911683464     IN= 15.7671422364061
   A= 2.76517131989393     MA= 66.55530317435287   ADIST= 3.516473992071236
   PER= 4.59824            N= .21434877            ANGMOM= .027528953
   DAN= 2.15522            DDN= 3.15514            L= 223.204731
   B= 11.2968679           MOID= 1.04007995        TP= 2003-Nov-01.4999618703
 
Asteroid physical parameters (km, seconds, rotational period in hours):
   GM= n.a.                RAD= 102.7475           ROTPER= 5.988
   H= 7.4                  G= .100                 B-V= .726
                           ALBEDO= .059            STYP= Ch
 
ASTEROID comments: 
1: soln ref.= JPL#129, OCC=0
2: source=ORB
*******************************************************************************
 
 
*******************************************************************************
Ephemeris / WWW_USER Sat Jun 20 07:59:12 2020 Pasadena, USA      / Horizons
*******************************************************************************
Target body name: 41 Daphne (A856 KA)             {source: JPL#129}
Center body name: Solar System Barycenter (0)     {source: DE431}
Center-site name: BODY CENTER
*******************************************************************************
Start time      : A.D. 1969-Jun-28 00:00:00.0000 TDB
Stop  time      : A.D. 2071-May-04 00:00:00.0000 TDB
Step-size       : 7200 minutes
*******************************************************************************
Center geodetic : 0.00000000,0.00000000,0.0000000 {E-lon(deg),Lat(deg),Alt(km)}
Center cylindric: 0.00000000,0.00000000,0.0000000 {E-lon(deg),Dxy(km),Dz(km)}
Center radii    : (undefined)                                                  
Small perturbers: Yes                             {source: SB431-N16}
Output units    : AU-D
Output type     : GEOMETRIC cartesian states
Output format   : 2 (position and velocity)
Reference frame : Ecliptic of J2000.0
*******************************************************************************
Initial IAU76/J2000 heliocentric ecliptic osculating elements (au, days, deg.):
  EPOCH=  2453255.5 ! 2004-Sep-07.00 (TDB)         Residual RMS= .18714        
   EC= .2717020340736521   QR= 2.013868647716624   TP= 2452944.9999618703      
   OM= 178.1732344615275   W=  46.129911683464     IN= 15.7671422364061        
  Equivalent ICRF heliocentric equatorial cartesian coordinates (au, au/d):
   X= 2.103580670596742E+00  Y=-1.611269716710005E+00  Z=-2.356597249781450E-01
  VX= 8.621553532971187E-03 VY= 6.365032505261404E-03 VZ= 7.829379016486060E-04
Asteroid physical parameters (km, seconds, rotational period in hours):        
   GM= n.a.                RAD= 102.7475           ROTPER= 5.988               
   H= 7.4                  G= .100                 B-V= .726                   
                           ALBEDO= .059            STYP= Ch                    
*******************************************************************************
            JDTDB,            Calendar Date (TDB),        delta-T,                      X,                      Y,                      Z,                     VX,                     VY,                     VZ,
******************************************************************************************************************************************************************************************************************
$$SOE
2477500.500000000, A.D. 2071-Jan-24 00:00:00.0000,      69.184536,  1.148020652772602E+00,  3.080869452113259E+00, -8.820859374313922E-01, -8.008111893544173E-03,  1.513136614594147E-03, -3.003330683276581E-04,
2477505.500000000, A.D. 2071-Jan-29 00:00:00.0000,      69.184671,  1.107873941699924E+00,  3.088145793513914E+00, -8.835047634145511E-01, -8.050360883941510E-03,  1.397246659003439E-03, -2.671576778620672E-04,
2477510.500000000, A.D. 2071-Feb-03 00:00:00.0000,      69.184800,  1.067519174776734E+00,  3.094840383731882E+00, -8.847571173836618E-01, -8.091331348562974E-03,  1.280435720899884E-03, -2.337441919787599E-04,
2477515.500000000, A.D. 2071-Feb-08 00:00:00.0000,      69.184923,  1.026962788404709E+00,  3.100948611556365E+00, -8.858418078113556E-01, -8.131005678775420E-03,  1.162701283570108E-03, -2.000921928126190E-04,
2477520.500000000, A.D. 2071-Feb-13 00:00:00.0000,      69.185038,  9.862113085343379E-01,  3.106465853241051E+00, -8.867576411175305E-01, -8.169365661084383E-03,  1.044040851407378E-03, -1.662012777179723E-04,
2477525.500000000, A.D. 2071-Feb-18 00:00:00.0000,      69.185143,  9.452713537286636E-01,  3.111387472638353E+00, -8.875034217543225E-01, -8.206392461281228E-03,  9.244519614834729E-04, -1.320710628460453E-04,
2477530.500000000, A.D. 2071-Feb-23 00:00:00.0000,      69.185241,  9.041496383074835E-01,  3.115708821392897E+00, -8.880779523093845E-01, -8.242066608110488E-03,  8.039321956815123E-04, -9.770118689105849E-05,
2477535.500000000, A.D. 2071-Feb-28 00:00:00.0000,      69.185331,  8.628529755744496E-01,  3.119425239197154E+00, -8.884800336283423E-01, -8.276367976433479E-03,  6.824791934337153E-04, -6.309131502127492E-05,
2477540.500000000, A.D. 2071-Mar-05 00:00:00.0000,      69.185412,  8.213882811297513E-01,  3.122532054112311E+00, -8.887084649574062E-01, -8.309275769820075E-03,  5.600906650548724E-04, -2.824114299899765E-05,
2477545.500000000, A.D. 2071-Mar-10 00:00:00.0000,      69.185481,  7.797625762713575E-01,  3.125024582956880E+00, -8.887620441068397E-01, -8.340768502557718E-03,  4.367644054654639E-04,  6.849598623286589E-06,
2477550.500000000, A.D. 2071-Mar-15 00:00:00.0000,      69.185537,  7.379829914869426E-01,  3.126898131764507E+00, -8.886395676351648E-01, -8.370823981446751E-03,  3.124983081758914E-04,  4.218114041665738E-05,
2477555.500000000, A.D. 2071-Mar-20 00:00:00.0000,      69.185581,  6.960567700367553E-01,  3.128147996313520E+00, -8.883398310539330E-01, -8.399419287612732E-03,  1.872903801299963E-04,  7.775366986444343E-05,
2477560.500000000, A.D. 2071-Mar-25 00:00:00.0000,      69.185614,  6.539912716280792E-01,  3.128769462733903E+00, -8.878616290545909E-01, -8.426530757977483E-03,  6.113875783101224E-05,  1.135673267108837E-04,
2477565.500000000, A.D. 2071-Mar-30 00:00:00.0000,      69.185637,  6.117939761838529E-01,  3.128757808197720E+00, -8.872037557596871E-01, -8.452133966120358E-03, -6.595827544037422E-05,  1.496221979021430E-04,
2477570.500000000, A.D. 2071-Apr-04 00:00:00.0000,      69.185648,  5.694724877083407E-01,  3.128108301698036E+00, -8.863650050001366E-01, -8.476203702615349E-03, -1.940022714561677E-04,  1.859183122271993E-04,
2477575.500000000, A.D. 2071-Apr-09 00:00:00.0000,      69.185646,  5.270345382523045E-01,  3.126816204921215E+00, -8.853441706200604E-01, -8.498713954890711E-03, -3.229945978274177E-04,  2.224556346383084E-04,
2477580.500000000, A.D. 2071-Apr-14 00:00:00.0000,      69.185631,  4.844879919801346E-01,  3.124876773218103E+00, -8.841400468109051E-01, -8.519637886582047E-03, -4.529364176656959E-04,  2.592340602175966E-04,
2477585.500000000, A.D. 2071-Apr-19 00:00:00.0000,      69.185603,  4.418408493415484E-01,  3.122285256679805E+00, -8.827514284766417E-01, -8.538947816347092E-03, -5.838286680705304E-04,  2.962534077761105E-04,
2477590.500000000, A.D. 2071-Apr-24 00:00:00.0000,      69.185564,  3.991012513505543E-01,  3.119036901324012E+00, -8.811771116318732E-01, -8.556615196148908E-03, -7.156720374233671E-04,  3.335134130936636E-04,
2477595.500000000, A.D. 2071-Apr-29 00:00:00.0000,      69.185516,  3.562774839742841E-01,  3.115126950397914E+00, -8.794158938346345E-01, -8.572610589030067E-03, -8.484669414463335E-04,  3.710137218007447E-04,
2477600.500000000, A.D. 2071-May-04 00:00:00.0000,      69.185457,  3.133779826341608E-01,  3.110550645804027E+00, -8.774665746556911E-01, -8.586903646409563E-03, -9.822134979720258E-04,  4.087538818978589E-04,
